ONEWEB-0332             
1 49279U 21090A   24023.25516175 -.00000107  00000+0 -32300-3 0  9996
2 49279  87.8969 104.0815 0002143 110.0725 250.0635 13.14504153112502
ONEWEB-0347             
1 49280U 21090B   24023.67496782  .00000071  00000+0  14377-3 0  9997
2 49280  87.9172  88.7213 0002277 107.9515 252.1867 13.20770274115476
ONEWEB-0349             
1 49281U 21090C   24023.25198811  .00000041  00000+0  68307-4 0  9994
2 49281  87.9175  88.8027 0001606  93.4692 266.6625 13.20772317114206
ONEWEB-0353             
1 49282U 21090D   24023.24722647  .00000469  00000+0  12309-2 0  9997
2 49282  87.8973 104.0675 0002351 101.3883 258.7511 13.14498152112503
ONEWEB-0356             
1 49283U 21090E   24023.62918988  .00000000  00000+0 -31565-4 0  9994
2 49283  87.9174  88.7236 0001357 132.0115 228.1134 13.20769888115546
ONEWEB-0358             
1 49284U 21090F   24023.65917639  .00000044  00000+0  76609-4 0  9995
2 49284  87.9174  88.7029 0001496 101.8095 258.3206 13.20771405116276
ONEWEB-0359             
1 49285U 21090G   24023.20148390  .00000146  00000+0  32824-3 0  9990
2 49285  87.9174  88.8150 0001722  87.2292 272.9038 13.20770446114908
ONEWEB-0360             
1 49286U 21090H   24023.19201248  .00000117  00000+0  25481-3 0  9990
2 49286  87.9172  88.8210 0001833  97.7048 262.4293 13.20772036114210
